[{"OBJECT_NAME":"NUSAT-44 (MARIA MITCHELL)","OBJECT_ID":"2024-043AA","EPOCH":"2026-03-09T22:12:18.524160","MEAN_MOTION":15.29764305,"ECCENTRICITY":0.0007331,"INCLINATION":97.5299,"RA_OF_ASC_NODE":207.7691,"ARG_OF_PERICENTER":214.9017,"MEAN_ANOMALY":145.1743,"EPHEMERIS_TYPE":0,"CLASSIFICATION_TYPE":"U","NORAD_CAT_ID":59122,"ELEMENT_SET_NO":999,"REV_AT_EPOCH":11209,"BSTAR":0.00061063193,"MEAN_MOTION_DOT":0.00017562,"MEAN_MOTION_DDOT":0},{"OBJECT_NAME":"STARLINK-35816","OBJECT_ID":"2025-263Q","EPOCH":"2026-03-09T03:45:59.379264","MEAN_MOTION":15.27576912,"ECCENTRICITY":0.00017652,"INCLINATION":43.003,"RA_OF_ASC_NODE":354.0351,"ARG_OF_PERICENTER":277.2488,"MEAN_ANOMALY":82.8163,"EPHEMERIS_TYPE":0,"CLASSIFICATION_TYPE":"U","NORAD_CAT_ID":66499,"ELEMENT_SET_NO":999,"REV_AT_EPOCH":1881,"BSTAR":0.0013877577,"MEAN_MOTION_DOT":0.0003812,"MEAN_MOTION_DDOT":0}]
